[{"OBJECT_NAME":"MKA-PN 1","OBJECT_ID":"2012-039E","EPOCH":"2026-03-09T22:22:36.240960","MEAN_MOTION":14.25388825,"ECCENTRICITY":0.00124264,"INCLINATION":98.958,"RA_OF_ASC_NODE":183.7893,"ARG_OF_PERICENTER":95.296,"MEAN_ANOMALY":264.9637,"EPHEMERIS_TYPE":0,"CLASSIFICATION_TYPE":"U","NORAD_CAT_ID":38711,"ELEMENT_SET_NO":999,"REV_AT_EPOCH":70870,"BSTAR":0.00011675607,"MEAN_MOTION_DOT":2.29e-6,"MEAN_MOTION_DDOT":0},{"OBJECT_NAME":"COSMOS 252 DEB","OBJECT_ID":"1968-097EE","EPOCH":"2026-03-06T10:40:04.273824","MEAN_MOTION":13.13846636,"ECCENTRICITY":0.06137448,"INCLINATION":62.2446,"RA_OF_ASC_NODE":233.6074,"ARG_OF_PERICENTER":294.8502,"MEAN_ANOMALY":58.9886,"EPHEMERIS_TYPE":0,"CLASSIFICATION_TYPE":"U","NORAD_CAT_ID":19294,"ELEMENT_SET_NO":999,"REV_AT_EPOCH":79177,"BSTAR":0.0018252023,"MEAN_MOTION_DOT":1.66e-5,"MEAN_MOTION_DDOT":0}]
